GLOBALSTAR M023         
1 25621U 99004A   25257.12780727 -.00000030  00000+0  40833-3 0  9997
2 25621  52.0099 142.6154 0010005 327.1406 197.0465 12.62506091226964
GLOBALSTAR M040         
1 25622U 99004B   25257.13784569 -.00000076  00000+0  15432-3 0  9994
2 25622  51.9910 146.8710 0000223 167.0303 357.7949 12.62016896226485
GLOBALSTAR M036         
1 25623U 99004C   25257.23544933 -.00000054  00000+0  42468-3 0  9990
2 25623  52.0003   5.6068 0010657 218.3974 149.1048 11.86608426189555
GLOBALSTAR M038         
1 25624U 99004D   25257.24362124 -.00000076  00000+0  15704-3 0  9999
2 25624  51.9967 175.0985 0001196 244.2797 281.8663 12.32532000213351
GLOBALSTAR M022         
1 25649U 99012A   25257.20612535 -.00000108  00000+0 -25808-3 0  9998
2 25649  52.0052  48.9040 0002557   8.6437 161.2213 12.02502587187086
GLOBALSTAR M041         
1 25650U 99012B   25257.09047720 -.00000101  00000+0 -19714-3 0  9997
2 25650  52.0022 293.3867 0001597 130.1648 229.9329 11.96682811188921
GLOBALSTAR M046         
1 25651U 99012C   25257.26206178 -.00000040  00000+0  53894-3 0  9999
2 25651  52.0092 355.6380 0002544  82.0044 294.0944 12.09413405194445
GLOBALSTAR M037         
1 25652U 99012D   25257.24527888 -.00000067  00000+0  20729-3 0  9992
2 25652  51.9992 272.8453 0002129  30.3419  26.8157 12.62451110222527
